ONEWEB-0682             
1 56718U 23068J   25334.82861082  .00000122  00000+0  29048-3 0  9998
2 56718  87.8978 298.7784 0001367  78.5816 281.5468 13.15551070123371
ONEWEB-0683             
1 56719U 23068K   25334.85002135 -.00000065  00000+0 -20713-3 0  9996
2 56719  87.8989 298.7574 0001609  77.7848 282.3463 13.15548674123343
ONEWEB-0684             
1 56720U 23068L   25334.85793045 -.00000071  00000+0 -22213-3 0  9999
2 56720  87.8984 298.7507 0003122  67.1275 293.0185 13.15550592123178
ONEWEB-0686             
1 56721U 23068M   25334.75355027  .00000066  00000+0  14115-3 0  9997
2 56721  87.9029 268.3143 0001834  64.6663 295.4657 13.15056373125608
ONEWEB-0694             
1 56722U 23068N   25334.85837049 -.00000016  00000+0 -75579-4 0  9997
2 56722  87.9044 268.2305 0001404  67.9207 292.2073 13.16593919125675
ONEWEB-0696             
1 56723U 23068P   25334.66304700  .00000192  00000+0  47694-3 0  9999
2 56723  87.8978 298.8433 0002193  81.2246 278.9133 13.15548077123265
ONEWEB-0703             
1 56724U 23068Q   25334.59649940  .00000171  00000+0  42087-3 0  9998
2 56724  87.8972 298.8387 0002851  92.1122 268.0335 13.15548869123143
ONEWEB-0721             
1 56725U 23068R   25334.83605407  .00000077  00000+0  14968-3 0  9998
2 56725  86.6791 148.7874 0001393  91.7849 268.3443 13.22452918131728
