{
  "type": "FeatureCollection",
  "features": [
    {
      "type": "Feature",
      "properties": {
        "norad_id": 56718,
        "name": "ONEWEB-0682",
        "group": "active",
        "lat": NaN,
        "lon": NaN,
        "alt_km": NaN,
        "timestamp": "2025-12-01T03:08:33.376916+00:00",
        "meta": {
          "OBJECT_NAME": "ONEWEB-0682",
          "OBJECT_ID": "2023-068J",
          "EPOCH": "2025-11-30T19:53:11.974848",
          "MEAN_MOTION": 13.1555107,
          "ECCENTRICITY": 0.0001367,
          "INCLINATION": 87.8978,
          "RA_OF_ASC_NODE": 298.7784,
          "ARG_OF_PERICENTER": 78.5816,
          "MEAN_ANOMALY": 281.5468,
          "EPHEMERIS_TYPE": 0,
          "CLASSIFICATION_TYPE": "U",
          "NORAD_CAT_ID": 56718,
          "ELEMENT_SET_NO": 999,
          "REV_AT_EPOCH": 12337,
          "BSTAR": 0.00029048,
          "MEAN_MOTION_DOT": 1.22e-06,
          "MEAN_MOTION_DDOT": 0
        }
      },
      "geometry": {
        "type": "Point",
        "coordinates": [
          NaN,
          NaN
        ]
      }
    },
    {
      "type": "Feature",
      "properties": {
        "norad_id": 56719,
        "name": "ONEWEB-0683",
        "group": "active",
        "lat": NaN,
        "lon": NaN,
        "alt_km": NaN,
        "timestamp": "2025-12-01T03:08:33.376921+00:00",
        "meta": {
          "OBJECT_NAME": "ONEWEB-0683",
          "OBJECT_ID": "2023-068K",
          "EPOCH": "2025-11-30T20:24:01.844640",
          "MEAN_MOTION": 13.15548674,
          "ECCENTRICITY": 0.0001609,
          "INCLINATION": 87.8989,
          "RA_OF_ASC_NODE": 298.7574,
          "ARG_OF_PERICENTER": 77.7848,
          "MEAN_ANOMALY": 282.3463,
          "EPHEMERIS_TYPE": 0,
          "CLASSIFICATION_TYPE": "U",
          "NORAD_CAT_ID": 56719,
          "ELEMENT_SET_NO": 999,
          "REV_AT_EPOCH": 12334,
          "BSTAR": -0.00020713,
          "MEAN_MOTION_DOT": -6.5e-07,
          "MEAN_MOTION_DDOT": 0
        }
      },
      "geometry": {
        "type": "Point",
        "coordinates": [
          NaN,
          NaN
        ]
      }
    },
    {
      "type": "Feature",
      "properties": {
        "norad_id": 56720,
        "name": "ONEWEB-0684",
        "group": "active",
        "lat": NaN,
        "lon": NaN,
        "alt_km": NaN,
        "timestamp": "2025-12-01T03:08:33.376926+00:00",
        "meta": {
          "OBJECT_NAME": "ONEWEB-0684",
          "OBJECT_ID": "2023-068L",
          "EPOCH": "2025-11-30T20:35:25.190880",
          "MEAN_MOTION": 13.15550592,
          "ECCENTRICITY": 0.0003122,
          "INCLINATION": 87.8984,
          "RA_OF_ASC_NODE": 298.7507,
          "ARG_OF_PERICENTER": 67.1275,
          "MEAN_ANOMALY": 293.0185,
          "EPHEMERIS_TYPE": 0,
          "CLASSIFICATION_TYPE": "U",
          "NORAD_CAT_ID": 56720,
          "ELEMENT_SET_NO": 999,
          "REV_AT_EPOCH": 12317,
          "BSTAR": -0.00022213,
          "MEAN_MOTION_DOT": -7.1e-07,
          "MEAN_MOTION_DDOT": 0
        }
      },
      "geometry": {
        "type": "Point",
        "coordinates": [
          NaN,
          NaN
        ]
      }
    },
    {
      "type": "Feature",
      "properties": {
        "norad_id": 56721,
        "name": "ONEWEB-0686",
        "group": "active",
        "lat": NaN,
        "lon": NaN,
        "alt_km": NaN,
        "timestamp": "2025-12-01T03:08:33.376931+00:00",
        "meta": {
          "OBJECT_NAME": "ONEWEB-0686",
          "OBJECT_ID": "2023-068M",
          "EPOCH": "2025-11-30T18:05:06.743328",
          "MEAN_MOTION": 13.15056373,
          "ECCENTRICITY": 0.0001834,
          "INCLINATION": 87.9029,
          "RA_OF_ASC_NODE": 268.3143,
          "ARG_OF_PERICENTER": 64.6663,
          "MEAN_ANOMALY": 295.4657,
          "EPHEMERIS_TYPE": 0,
          "CLASSIFICATION_TYPE": "U",
          "NORAD_CAT_ID": 56721,
          "ELEMENT_SET_NO": 999,
          "REV_AT_EPOCH": 12560,
          "BSTAR": 0.00014115,
          "MEAN_MOTION_DOT": 6.6e-07,
          "MEAN_MOTION_DDOT": 0
        }
      },
      "geometry": {
        "type": "Point",
        "coordinates": [
          NaN,
          NaN
        ]
      }
    },
    {
      "type": "Feature",
      "properties": {
        "norad_id": 56722,
        "name": "ONEWEB-0694",
        "group": "active",
        "lat": NaN,
        "lon": NaN,
        "alt_km": NaN,
        "timestamp": "2025-12-01T03:08:33.376936+00:00",
        "meta": {
          "OBJECT_NAME": "ONEWEB-0694",
          "OBJECT_ID": "2023-068N",
          "EPOCH": "2025-11-30T20:36:03.210336",
          "MEAN_MOTION": 13.16593919,
          "ECCENTRICITY": 0.0001404,
          "INCLINATION": 87.9044,
          "RA_OF_ASC_NODE": 268.2305,
          "ARG_OF_PERICENTER": 67.9207,
          "MEAN_ANOMALY": 292.2073,
          "EPHEMERIS_TYPE": 0,
          "CLASSIFICATION_TYPE": "U",
          "NORAD_CAT_ID": 56722,
          "ELEMENT_SET_NO": 999,
          "REV_AT_EPOCH": 12567,
          "BSTAR": -7.5579e-05,
          "MEAN_MOTION_DOT": -1.6e-07,
          "MEAN_MOTION_DDOT": 0
        }
      },
      "geometry": {
        "type": "Point",
        "coordinates": [
          NaN,
          NaN
        ]
      }
    },
    {
      "type": "Feature",
      "properties": {
        "norad_id": 56723,
        "name": "ONEWEB-0696",
        "group": "active",
        "lat": NaN,
        "lon": NaN,
        "alt_km": NaN,
        "timestamp": "2025-12-01T03:08:33.376941+00:00",
        "meta": {
          "OBJECT_NAME": "ONEWEB-0696",
          "OBJECT_ID": "2023-068P",
          "EPOCH": "2025-11-30T15:54:47.260800",
          "MEAN_MOTION": 13.15548077,
          "ECCENTRICITY": 0.0002193,
          "INCLINATION": 87.8978,
          "RA_OF_ASC_NODE": 298.8433,
          "ARG_OF_PERICENTER": 81.2246,
          "MEAN_ANOMALY": 278.9133,
          "EPHEMERIS_TYPE": 0,
          "CLASSIFICATION_TYPE": "U",
          "NORAD_CAT_ID": 56723,
          "ELEMENT_SET_NO": 999,
          "REV_AT_EPOCH": 12326,
          "BSTAR": 0.00047694,
          "MEAN_MOTION_DOT": 1.92e-06,
          "MEAN_MOTION_DDOT": 0
        }
      },
      "geometry": {
        "type": "Point",
        "coordinates": [
          NaN,
          NaN
        ]
      }
    },
    {
      "type": "Feature",
      "properties": {
        "norad_id": 56724,
        "name": "ONEWEB-0703",
        "group": "active",
        "lat": NaN,
        "lon": NaN,
        "alt_km": NaN,
        "timestamp": "2025-12-01T03:08:33.376946+00:00",
        "meta": {
          "OBJECT_NAME": "ONEWEB-0703",
          "OBJECT_ID": "2023-068Q",
          "EPOCH": "2025-11-30T14:18:57.548160",
          "MEAN_MOTION": 13.15548869,
          "ECCENTRICITY": 0.0002851,
          "INCLINATION": 87.8972,
          "RA_OF_ASC_NODE": 298.8387,
          "ARG_OF_PERICENTER": 92.1122,
          "MEAN_ANOMALY": 268.0335,
          "EPHEMERIS_TYPE": 0,
          "CLASSIFICATION_TYPE": "U",
          "NORAD_CAT_ID": 56724,
          "ELEMENT_SET_NO": 999,
          "REV_AT_EPOCH": 12314,
          "BSTAR": 0.00042087,
          "MEAN_MOTION_DOT": 1.71e-06,
          "MEAN_MOTION_DDOT": 0
        }
      },
      "geometry": {
        "type": "Point",
        "coordinates": [
          NaN,
          NaN
        ]
      }
    },
    {
      "type": "Feature",
      "properties": {
        "norad_id": 56725,
        "name": "ONEWEB-0721",
        "group": "active",
        "lat": NaN,
        "lon": NaN,
        "alt_km": NaN,
        "timestamp": "2025-12-01T03:08:33.376952+00:00",
        "meta": {
          "OBJECT_NAME": "ONEWEB-0721",
          "OBJECT_ID": "2023-068R",
          "EPOCH": "2025-11-30T20:03:55.071648",
          "MEAN_MOTION": 13.22452918,
          "ECCENTRICITY": 0.0001393,
          "INCLINATION": 86.6791,
          "RA_OF_ASC_NODE": 148.7874,
          "ARG_OF_PERICENTER": 91.7849,
          "MEAN_ANOMALY": 268.3443,
          "EPHEMERIS_TYPE": 0,
          "CLASSIFICATION_TYPE": "U",
          "NORAD_CAT_ID": 56725,
          "ELEMENT_SET_NO": 999,
          "REV_AT_EPOCH": 13172,
          "BSTAR": 0.00014968,
          "MEAN_MOTION_DOT": 7.7e-07,
          "MEAN_MOTION_DDOT": 0
        }
      },
      "geometry": {
        "type": "Point",
        "coordinates": [
          NaN,
          NaN
        ]
      }
    }
  ]
}